SL-14 R/B               
1 21423U 91042B   26020.13846335  .00000515  00000+0  62215-4 0  9991
2 21423  82.4922 265.7198 0018128  44.2721 315.9939 14.81778457845883
ERS-1                   
1 21574U 91050A   26020.31711399  .00000527  00000+0  18332-3 0  9991
2 21574  98.7896  37.3364 0031698 347.7100  12.3310 14.39401198808773
ARIANE 40 R/B           
1 21610U 91050F   26020.13629248  .00000408  00000+0  13489-3 0  9999
2 21610  98.2109  74.1715 0002622 201.0073 159.1011 14.42848117811997
INTERCOSMOS 25          
1 21819U 91086A   26020.27480689  .00000757  00000+0  14890-3 0  9992
2 21819  82.6088 339.2673 1486069 221.2706 126.6264 12.11863078490829
SL-8 R/B                
1 21876U 92008B   26020.30307804  .00000094  00000+0  81862-4 0  9999
2 21876  82.9290 303.7677 0033334 270.1863 204.5104 13.75966908702764
SL-8 R/B                
1 21938U 92020B   26020.19757792  .00000210  00000+0  20158-3 0  9994
2 21938  82.9300 189.7581 0030166  73.9738  98.8010 13.75539767694467
USA 81                  
1 21949U 92023A   26020.31693073  .00000299  00000+0  10346-3 0  9999
2 21949  85.0108 159.3299 0001907 116.6096 243.5292 14.32344770 87864
COSMOS 2219             
1 22219U 92076A   26020.27731024 -.00000080  00000+0 -16997-4 0  9991
2 22219  71.0616 119.2763 0020855 274.1759  85.6980 14.14081286711531
SL-16 R/B               
1 22220U 92076B   26020.21421507 -.00000067  00000+0 -95162-5 0  9996
2 22220  71.0009 290.4872 0012647 180.0352 342.0955 14.16850586714967
COSMOS 2221             
1 22236U 92080A   26020.28140803  .00003405  00000+0  30116-3 0  9995
2 22236  82.5066 325.4319 0014673   2.5986 357.5309 14.95954623773559
SL-16 R/B               
1 22285U 92093B   26020.33035007  .00000297  00000+0  17649-3 0  9990
2 22285  71.0223 105.7884 0004092 348.9671  11.1361 14.15440787706313
COSMOS 2228             
1 22286U 92094A   26020.26252788  .00004165  00000+0  35910-3 0  9990
2 22286  82.5188 283.6757 0019576 102.9973 257.3437 14.96935338768813
