CCSDS_OMM_VERS = 2.0
CREATION_DATE  = 
ORIGINATOR     = 

OBJECT_NAME    = SL-14 R/B
OBJECT_ID      = 1991-042B
CENTER_NAME    = EARTH
REF_FRAME      = TEME
TIME_SYSTEM    = UTC
MEAN_ELEMENT_THEORY = SGP/SGP4

EPOCH          = 2026-01-20T03:19:23.233440
MEAN_MOTION    = 14.81778457
ECCENTRICITY   = .00181281
INCLINATION    = 82.4922
RA_OF_ASC_NODE = 265.7198
ARG_OF_PERICENTER = 44.2721
MEAN_ANOMALY   = 315.9939

EPHEMERIS_TYPE = 0
CLASSIFICATION_TYPE = U
NORAD_CAT_ID   = 21423
ELEMENT_SET_NO = 999
REV_AT_EPOCH   = 84588
BSTAR          = .6221474E-4
MEAN_MOTION_DOT = .515E-5
MEAN_MOTION_DDOT = 0

CCSDS_OMM_VERS = 2.0
CREATION_DATE  = 
ORIGINATOR     = 

OBJECT_NAME    = ERS-1
OBJECT_ID      = 1991-050A
CENTER_NAME    = EARTH
REF_FRAME      = TEME
TIME_SYSTEM    = UTC
MEAN_ELEMENT_THEORY = SGP/SGP4

EPOCH          = 2026-01-20T07:36:38.648736
MEAN_MOTION    = 14.39401198
ECCENTRICITY   = .00316985
INCLINATION    = 98.7896
RA_OF_ASC_NODE = 37.3364
ARG_OF_PERICENTER = 347.7100
MEAN_ANOMALY   = 12.3310

EPHEMERIS_TYPE = 0
CLASSIFICATION_TYPE = U
NORAD_CAT_ID   = 21574
ELEMENT_SET_NO = 999
REV_AT_EPOCH   = 80877
BSTAR          = .18332042E-3
MEAN_MOTION_DOT = .527E-5
MEAN_MOTION_DDOT = 0

CCSDS_OMM_VERS = 2.0
CREATION_DATE  = 
ORIGINATOR     = 

OBJECT_NAME    = ARIANE 40 R/B
OBJECT_ID      = 1991-050F
CENTER_NAME    = EARTH
REF_FRAME      = TEME
TIME_SYSTEM    = UTC
MEAN_ELEMENT_THEORY = SGP/SGP4

EPOCH          = 2026-01-20T03:16:15.670272
MEAN_MOTION    = 14.42848117
ECCENTRICITY   = .00026221
INCLINATION    = 98.2109
RA_OF_ASC_NODE = 74.1715
ARG_OF_PERICENTER = 201.0073
MEAN_ANOMALY   = 159.1011

EPHEMERIS_TYPE = 0
CLASSIFICATION_TYPE = U
NORAD_CAT_ID   = 21610
ELEMENT_SET_NO = 999
REV_AT_EPOCH   = 81199
BSTAR          = .13489493E-3
MEAN_MOTION_DOT = .408E-5
MEAN_MOTION_DDOT = 0

CCSDS_OMM_VERS = 2.0
CREATION_DATE  = 
ORIGINATOR     = 

OBJECT_NAME    = INTERCOSMOS 25
OBJECT_ID      = 1991-086A
CENTER_NAME    = EARTH
REF_FRAME      = TEME
TIME_SYSTEM    = UTC
MEAN_ELEMENT_THEORY = SGP/SGP4

EPOCH          = 2026-01-20T06:35:43.315296
MEAN_MOTION    = 12.11863078
ECCENTRICITY   = .14860699
INCLINATION    = 82.6088
RA_OF_ASC_NODE = 339.2673
ARG_OF_PERICENTER = 221.2706
MEAN_ANOMALY   = 126.6264

EPHEMERIS_TYPE = 0
CLASSIFICATION_TYPE = U
NORAD_CAT_ID   = 21819
ELEMENT_SET_NO = 999
REV_AT_EPOCH   = 49082
BSTAR          = .14890231E-3
MEAN_MOTION_DOT = .757E-5
MEAN_MOTION_DDOT = 0

CCSDS_OMM_VERS = 2.0
CREATION_DATE  = 
ORIGINATOR     = 

OBJECT_NAME    = SL-8 R/B
OBJECT_ID      = 1992-008B
CENTER_NAME    = EARTH
REF_FRAME      = TEME
TIME_SYSTEM    = UTC
MEAN_ELEMENT_THEORY = SGP/SGP4

EPOCH          = 2026-01-20T07:16:25.942656
MEAN_MOTION    = 13.75966908
ECCENTRICITY   = .00333346
INCLINATION    = 82.9290
RA_OF_ASC_NODE = 303.7677
ARG_OF_PERICENTER = 270.1863
MEAN_ANOMALY   = 204.5104

EPHEMERIS_TYPE = 0
CLASSIFICATION_TYPE = U
NORAD_CAT_ID   = 21876
ELEMENT_SET_NO = 999
REV_AT_EPOCH   = 70276
BSTAR          = .81861775E-4
MEAN_MOTION_DOT = .94E-6
MEAN_MOTION_DDOT = 0

CCSDS_OMM_VERS = 2.0
CREATION_DATE  = 
ORIGINATOR     = 

OBJECT_NAME    = SL-8 R/B
OBJECT_ID      = 1992-020B
CENTER_NAME    = EARTH
REF_FRAME      = TEME
TIME_SYSTEM    = UTC
MEAN_ELEMENT_THEORY = SGP/SGP4

EPOCH          = 2026-01-20T04:44:30.732288
MEAN_MOTION    = 13.75539767
ECCENTRICITY   = .0030166
INCLINATION    = 82.9300
RA_OF_ASC_NODE = 189.7581
ARG_OF_PERICENTER = 73.9738
MEAN_ANOMALY   = 98.8010

EPHEMERIS_TYPE = 0
CLASSIFICATION_TYPE = U
NORAD_CAT_ID   = 21938
ELEMENT_SET_NO = 999
REV_AT_EPOCH   = 69446
BSTAR          = .20157502E-3
MEAN_MOTION_DOT = .21E-5
MEAN_MOTION_DDOT = 0

CCSDS_OMM_VERS = 2.0
CREATION_DATE  = 
ORIGINATOR     = 

OBJECT_NAME    = USA 81
OBJECT_ID      = 1992-023A
CENTER_NAME    = EARTH
REF_FRAME      = TEME
TIME_SYSTEM    = UTC
MEAN_ELEMENT_THEORY = SGP/SGP4

EPOCH          = 2026-01-20T07:36:22.815072
MEAN_MOTION    = 14.32344770
ECCENTRICITY   = .00019076
INCLINATION    = 85.0108
RA_OF_ASC_NODE = 159.3299
ARG_OF_PERICENTER = 116.6096
MEAN_ANOMALY   = 243.5292

EPHEMERIS_TYPE = 0
CLASSIFICATION_TYPE = U
NORAD_CAT_ID   = 21949
ELEMENT_SET_NO = 999
REV_AT_EPOCH   = 8786
BSTAR          = .10345606E-3
MEAN_MOTION_DOT = .299E-5
MEAN_MOTION_DDOT = 0

CCSDS_OMM_VERS = 2.0
CREATION_DATE  = 
ORIGINATOR     = 

OBJECT_NAME    = COSMOS 2219
OBJECT_ID      = 1992-076A
CENTER_NAME    = EARTH
REF_FRAME      = TEME
TIME_SYSTEM    = UTC
MEAN_ELEMENT_THEORY = SGP/SGP4

EPOCH          = 2026-01-20T06:39:19.604736
MEAN_MOTION    = 14.14081286
ECCENTRICITY   = .00208555
INCLINATION    = 71.0616
RA_OF_ASC_NODE = 119.2763
ARG_OF_PERICENTER = 274.1759
MEAN_ANOMALY   = 85.6980

EPHEMERIS_TYPE = 0
CLASSIFICATION_TYPE = U
NORAD_CAT_ID   = 22219
ELEMENT_SET_NO = 999
REV_AT_EPOCH   = 71153
BSTAR          = -.16996593E-4
MEAN_MOTION_DOT = -.8E-6
MEAN_MOTION_DDOT = 0

CCSDS_OMM_VERS = 2.0
CREATION_DATE  = 
ORIGINATOR     = 

OBJECT_NAME    = SL-16 R/B
OBJECT_ID      = 1992-076B
CENTER_NAME    = EARTH
REF_FRAME      = TEME
TIME_SYSTEM    = UTC
MEAN_ELEMENT_THEORY = SGP/SGP4

EPOCH          = 2026-01-20T05:08:28.182048
MEAN_MOTION    = 14.16850586
ECCENTRICITY   = .00126474
INCLINATION    = 71.0009
RA_OF_ASC_NODE = 290.4872
ARG_OF_PERICENTER = 180.0352
MEAN_ANOMALY   = 342.0955

EPHEMERIS_TYPE = 0
CLASSIFICATION_TYPE = U
NORAD_CAT_ID   = 22220
ELEMENT_SET_NO = 999
REV_AT_EPOCH   = 71496
BSTAR          = -.951622E-5
MEAN_MOTION_DOT = -.67E-6
MEAN_MOTION_DDOT = 0

CCSDS_OMM_VERS = 2.0
CREATION_DATE  = 
ORIGINATOR     = 

OBJECT_NAME    = COSMOS 2221
OBJECT_ID      = 1992-080A
CENTER_NAME    = EARTH
REF_FRAME      = TEME
TIME_SYSTEM    = UTC
MEAN_ELEMENT_THEORY = SGP/SGP4

EPOCH          = 2026-01-20T06:45:13.653792
MEAN_MOTION    = 14.95954623
ECCENTRICITY   = .00146736
INCLINATION    = 82.5066
RA_OF_ASC_NODE = 325.4319
ARG_OF_PERICENTER = 2.5986
MEAN_ANOMALY   = 357.5309

EPHEMERIS_TYPE = 0
CLASSIFICATION_TYPE = U
NORAD_CAT_ID   = 22236
ELEMENT_SET_NO = 999
REV_AT_EPOCH   = 77355
BSTAR          = .30115818E-3
MEAN_MOTION_DOT = .3405E-4
MEAN_MOTION_DDOT = 0

CCSDS_OMM_VERS = 2.0
CREATION_DATE  = 
ORIGINATOR     = 

OBJECT_NAME    = SL-16 R/B
OBJECT_ID      = 1992-093B
CENTER_NAME    = EARTH
REF_FRAME      = TEME
TIME_SYSTEM    = UTC
MEAN_ELEMENT_THEORY = SGP/SGP4

EPOCH          = 2026-01-20T07:55:42.246048
MEAN_MOTION    = 14.15440787
ECCENTRICITY   = .00040927
INCLINATION    = 71.0223
RA_OF_ASC_NODE = 105.7884
ARG_OF_PERICENTER = 348.9671
MEAN_ANOMALY   = 11.1361

EPHEMERIS_TYPE = 0
CLASSIFICATION_TYPE = U
NORAD_CAT_ID   = 22285
ELEMENT_SET_NO = 999
REV_AT_EPOCH   = 70631
BSTAR          = .17649279E-3
MEAN_MOTION_DOT = .297E-5
MEAN_MOTION_DDOT = 0

CCSDS_OMM_VERS = 2.0
CREATION_DATE  = 
ORIGINATOR     = 

OBJECT_NAME    = COSMOS 2228
OBJECT_ID      = 1992-094A
CENTER_NAME    = EARTH
REF_FRAME      = TEME
TIME_SYSTEM    = UTC
MEAN_ELEMENT_THEORY = SGP/SGP4

EPOCH          = 2026-01-20T06:18:02.408832
MEAN_MOTION    = 14.96935338
ECCENTRICITY   = .00195767
INCLINATION    = 82.5188
RA_OF_ASC_NODE = 283.6757
ARG_OF_PERICENTER = 102.9973
MEAN_ANOMALY   = 257.3437

EPHEMERIS_TYPE = 0
CLASSIFICATION_TYPE = U
NORAD_CAT_ID   = 22286
ELEMENT_SET_NO = 999
REV_AT_EPOCH   = 76881
BSTAR          = .35909653E-3
MEAN_MOTION_DOT = .4165E-4
MEAN_MOTION_DDOT = 0

